{"type": "FeatureCollection", "features": [ {"type": "Feature", "properties": {"norad_id": 33980, "name": "COSMOS 2251 DEB", "group": "cosmos-2251-debris", "lat": -68.36084731127393, "lon": -76.19541091448343, "alt_km": 692.0131030038665, "timestamp": "2025-12-13T16:48:33.103135+00:00", "meta": {"OBJECT_NAME": "COSMOS 2251 DEB", "OBJECT_ID": "1993-036FP", "EPOCH": "2025-12-12T22:04:05.054880", "MEAN_MOTION": 14.58654779, "ECCENTRICITY": 0.00286899, "INCLINATION": 74.0218, "RA_OF_ASC_NODE": 59.0531, "ARG_OF_PERICENTER": 204.3612, "MEAN_ANOMALY": 271.7156, "EPHEMERIS_TYPE": 0, "CLASSIFICATION_TYPE": "U", "NORAD_CAT_ID": 33980, "ELEMENT_SET_NO": 999, "REV_AT_EPOCH": 88797, "BSTAR": 0.0010546413, "MEAN_MOTION_DOT": 4.916e-05, "MEAN_MOTION_DDOT": 0}, "tle": {"line1": "1 33980U 93036FP  25346.91950295  .00004916  00000+0  10546-2 0  9991", "line2": "2 33980  74.0218  59.0531 0028689 204.3612 271.7156 14.58654779887975"}}, "geometry": {"type": "Point", "coordinates": [-76.19541091448343, -68.36084731127393]}}, {"type": "Feature", "properties": {"norad_id": 33982, "name": "COSMOS 2251 DEB", "group": "cosmos-2251-debris", "lat": 59.91951825032461, "lon": 148.56468426220442, "alt_km": 670.8447829918532, "timestamp": "2025-12-13T16:48:33.103155+00:00", "meta": {"OBJECT_NAME": "COSMOS 2251 DEB", "OBJECT_ID": "1993-036FR", "EPOCH": "2025-12-12T19:41:50.231328", "MEAN_MOTION": 14.60211992, "ECCENTRICITY": 0.00750634, "INCLINATION": 74.071, "RA_OF_ASC_NODE": 359.7817, "ARG_OF_PERICENTER": 44.242, "MEAN_ANOMALY": 128.4595, "EPHEMERIS_TYPE": 0, "CLASSIFICATION_TYPE": "U", "NORAD_CAT_ID": 33982, "ELEMENT_SET_NO": 999, "REV_AT_EPOCH": 89160, "BSTAR": 0.00062259344, "MEAN_MOTION_DOT": 3.093e-05, "MEAN_MOTION_DDOT": 0}, "tle": {"line1": "1 33982U 93036FR  25346.82072027  .00003093  00000+0  62259-3 0  9995", "line2": "2 33982  74.0710 359.7817 0075063  44.2420 128.4595 14.60211992891606"}}, "geometry": {"type": "Point", "coordinates": [148.56468426220442, 59.91951825032461]}}, {"type": "Feature", "properties": {"norad_id": 33983, "name": "COSMOS 2251 DEB", "group": "cosmos-2251-debris", "lat": 13.47048673839546, "lon": 149.17008580405692, "alt_km": 733.0568120935204, "timestamp": "2025-12-13T16:48:33.103171+00:00", "meta": {"OBJECT_NAME": "COSMOS 2251 DEB", "OBJECT_ID": "1993-036FS", "EPOCH": "2025-12-12T21:35:10.199904", "MEAN_MOTION": 14.5067208, "ECCENTRICITY": 0.00213487, "INCLINATION": 74.0494, "RA_OF_ASC_NODE": 146.7457, "ARG_OF_PERICENTER": 249.7872, "MEAN_ANOMALY": 262.8983, "EPHEMERIS_TYPE": 0, "CLASSIFICATION_TYPE": "U", "NORAD_CAT_ID": 33983, "ELEMENT_SET_NO": 999, "REV_AT_EPOCH": 88631, "BSTAR": 0.00087472782, "MEAN_MOTION_DOT": 3.42e-05, "MEAN_MOTION_DDOT": 0}, "tle": {"line1": "1 33983U 93036FS  25346.89942361  .00003420  00000+0  87473-3 0  9999", "line2": "2 33983  74.0494 146.7457 0021348 249.7872 262.8983 14.50672080886314"}}, "geometry": {"type": "Point", "coordinates": [149.17008580405692, 13.47048673839546]}}, {"type": "Feature", "properties": {"norad_id": 33984, "name": "COSMOS 2251 DEB", "group": "cosmos-2251-debris", "lat": 5.694326653943926, "lon": 163.60912528109063, "alt_km": 658.4625717486379, "timestamp": "2025-12-13T16:48:33.103182+00:00", "meta": {"OBJECT_NAME": "COSMOS 2251 DEB", "OBJECT_ID": "1993-036FT", "EPOCH": "2025-12-12T23:46:54.782112", "MEAN_MOTION": 14.66368163, "ECCENTRICITY": 0.00230864, "INCLINATION": 74.0099, "RA_OF_ASC_NODE": 346.6168, "ARG_OF_PERICENTER": 184.7833, "MEAN_ANOMALY": 205.5073, "EPHEMERIS_TYPE": 0, "CLASSIFICATION_TYPE": "U", "NORAD_CAT_ID": 33984, "ELEMENT_SET_NO": 999, "REV_AT_EPOCH": 89070, "BSTAR": 0.0011912164, "MEAN_MOTION_DOT": 6.583e-05, "MEAN_MOTION_DDOT": 0}, "tle": {"line1": "1 33984U 93036FT  25346.99091183  .00006583  00000+0  11912-2 0  9995", "line2": "2 33984  74.0099 346.6168 0023086 184.7833 205.5073 14.66368163890705"}}, "geometry": {"type": "Point", "coordinates": [163.60912528109063, 5.694326653943926]}}, {"type": "Feature", "properties": {"norad_id": 33986, "name": "COSMOS 2251 DEB", "group": "cosmos-2251-debris", "lat": 70.34240040522955, "lon": 67.63447274496423, "alt_km": 739.7624471054942, "timestamp": "2025-12-13T16:48:33.103193+00:00", "meta": {"OBJECT_NAME": "COSMOS 2251 DEB", "OBJECT_ID": "1993-036FV", "EPOCH": "2025-12-12T22:18:01.302336", "MEAN_MOTION": 14.43207283, "ECCENTRICITY": 0.00404379, "INCLINATION": 74.0367, "RA_OF_ASC_NODE": 302.3208, "ARG_OF_PERICENTER": 14.9212, "MEAN_ANOMALY": 41.0057, "EPHEMERIS_TYPE": 0, "CLASSIFICATION_TYPE": "U", "NORAD_CAT_ID": 33986, "ELEMENT_SET_NO": 999, "REV_AT_EPOCH": 88031, "BSTAR": 0.0012423937, "MEAN_MOTION_DOT": 4.195e-05, "MEAN_MOTION_DDOT": 0}, "tle": {"line1": "1 33986U 93036FV  25346.92918174  .00004195  00000+0  12424-2 0  9994", "line2": "2 33986  74.0367 302.3208 0040437  14.9212  41.0057 14.43207283880314"}}, "geometry": {"type": "Point", "coordinates": [67.63447274496423, 70.34240040522955]}}, {"type": "Feature", "properties": {"norad_id": 33990, "name": "COSMOS 2251 DEB", "group": "cosmos-2251-debris", "lat": -5.838113873545833, "lon": 106.14170888058369, "alt_km": 1211.226524105341, "timestamp": "2025-12-13T16:48:33.103209+00:00", "meta": {"OBJECT_NAME": "COSMOS 2251 DEB", "OBJECT_ID": "1993-036FZ", "EPOCH": "2025-12-12T22:25:17.759712", "MEAN_MOTION": 13.49993056, "ECCENTRICITY": 0.04075181, "INCLINATION": 73.9288, "RA_OF_ASC_NODE": 285.6821, "ARG_OF_PERICENTER": 305.9577, "MEAN_ANOMALY": 122.0666, "EPHEMERIS_TYPE": 0, "CLASSIFICATION_TYPE": "U", "NORAD_CAT_ID": 33990, "ELEMENT_SET_NO": 999, "REV_AT_EPOCH": 82732, "BSTAR": 0.002004618, "MEAN_MOTION_DOT": 2.112e-05, "MEAN_MOTION_DDOT": 0}, "tle": {"line1": "1 33990U 93036FZ  25346.93423333  .00002112  00000+0  20046-2 0  9994", "line2": "2 33990  73.9288 285.6821 0407518 305.9577 122.0666 13.49993056827320"}}, "geometry": {"type": "Point", "coordinates": [106.14170888058369, -5.838113873545833]}}, {"type": "Feature", "properties": {"norad_id": 33992, "name": "COSMOS 2251 DEB", "group": "cosmos-2251-debris", "lat": 33.80104506437268, "lon": -13.058367032407315, "alt_km": 651.22953451789, "timestamp": "2025-12-13T16:48:33.103219+00:00", "meta": {"OBJECT_NAME": "COSMOS 2251 DEB", "OBJECT_ID": "1993-036GB", "EPOCH": "2025-12-13T00:31:23.589120", "MEAN_MOTION": 14.66218464, "ECCENTRICITY": 0.00516436, "INCLINATION": 74.0244, "RA_OF_ASC_NODE": 337.1928, "ARG_OF_PERICENTER": 94.9343, "MEAN_ANOMALY": 320.6644, "EPHEMERIS_TYPE": 0, "CLASSIFICATION_TYPE": "U", "NORAD_CAT_ID": 33992, "ELEMENT_SET_NO": 999, "REV_AT_EPOCH": 89129, "BSTAR": 0.0011126704, "MEAN_MOTION_DOT": 6.224e-05, "MEAN_MOTION_DDOT": 0}, "tle": {"line1": "1 33992U 93036GB  25347.02180080  .00006224  00000+0  11127-2 0  9994", "line2": "2 33992  74.0244 337.1928 0051643  94.9343 320.6644 14.66218464891299"}}, "geometry": {"type": "Point", "coordinates": [-13.058367032407315, 33.80104506437268]}}, {"type": "Feature", "properties": {"norad_id": 33994, "name": "COSMOS 2251 DEB", "group": "cosmos-2251-debris", "lat": -40.05048750787768, "lon": 22.550492505892553, "alt_km": 763.7678778089676, "timestamp": "2025-12-13T16:48:33.103229+00:00", "meta": {"OBJECT_NAME": "COSMOS 2251 DEB", "OBJECT_ID": "1993-036GD", "EPOCH": "2025-12-12T23:40:18.789312", "MEAN_MOTION": 14.4121484, "ECCENTRICITY": 0.00236651, "INCLINATION": 74.0416, "RA_OF_ASC_NODE": 189.9534, "ARG_OF_PERICENTER": 324.2204, "MEAN_ANOMALY": 154.6818, "EPHEMERIS_TYPE": 0, "CLASSIFICATION_TYPE": "U", "NORAD_CAT_ID": 33994, "ELEMENT_SET_NO": 999, "REV_AT_EPOCH": 88423, "BSTAR": 0.00013065733, "MEAN_MOTION_DOT": 3.96e-06, "MEAN_MOTION_DDOT": 0}, "tle": {"line1": "1 33994U 93036GD  25346.98632858  .00000396  00000+0  13066-3 0  9994", "line2": "2 33994  74.0416 189.9534 0023665 324.2204 154.6818 14.41214840884237"}}, "geometry": {"type": "Point", "coordinates": [22.550492505892553, -40.05048750787768]}}, {"type": "Feature", "properties": {"norad_id": 33995, "name": "COSMOS 2251 DEB", "group": "cosmos-2251-debris", "lat": -72.86760384722167, "lon": 49.610005321518095, "alt_km": 817.6934592125199, "timestamp": "2025-12-13T16:48:33.103240+00:00", "meta": {"OBJECT_NAME": "COSMOS 2251 DEB", "OBJECT_ID": "1993-036GE", "EPOCH": "2025-12-12T19:26:54.457728", "MEAN_MOTION": 14.34774305, "ECCENTRICITY": 0.00600859, "INCLINATION": 74.0608, "RA_OF_ASC_NODE": 119.2222, "ARG_OF_PERICENTER": 133.6202, "MEAN_ANOMALY": 226.9958, "EPHEMERIS_TYPE": 0, "CLASSIFICATION_TYPE": "U", "NORAD_CAT_ID": 33995, "ELEMENT_SET_NO": 999, "REV_AT_EPOCH": 87520, "BSTAR": 0.0015193535, "MEAN_MOTION_DOT": 4.374e-05, "MEAN_MOTION_DDOT": 0}, "tle": {"line1": "1 33995U 93036GE  25346.81035252  .00004374  00000+0  15194-2 0  9995", "line2": "2 33995  74.0608 119.2222 0060085 133.6202 226.9958 14.34774305875202"}}, "geometry": {"type": "Point", "coordinates": [49.610005321518095, -72.86760384722167]}}, {"type": "Feature", "properties": {"norad_id": 33999, "name": "COSMOS 2251 DEB", "group": "cosmos-2251-debris", "lat": -58.23075890213517, "lon": 76.62498049461165, "alt_km": 639.9077081145224, "timestamp": "2025-12-13T16:48:33.103251+00:00", "meta": {"OBJECT_NAME": "COSMOS 2251 DEB", "OBJECT_ID": "1993-036GJ", "EPOCH": "2025-12-12T18:40:58.882656", "MEAN_MOTION": 14.83368294, "ECCENTRICITY": 0.00445525, "INCLINATION": 73.9189, "RA_OF_ASC_NODE": 230.6998, "ARG_OF_PERICENTER": 126.188, "MEAN_ANOMALY": 234.3431, "EPHEMERIS_TYPE": 0, "CLASSIFICATION_TYPE": "U", "NORAD_CAT_ID": 33999, "ELEMENT_SET_NO": 999, "REV_AT_EPOCH": 89251, "BSTAR": 0.001972491, "MEAN_MOTION_DOT": 0.00016464, "MEAN_MOTION_DDOT": 0}, "tle": {"line1": "1 33999U 93036GJ  25346.77845929  .00016464  00000+0  19725-2 0  9991", "line2": "2 33999  73.9189 230.6998 0044552 126.1880 234.3431 14.83368294892518"}}, "geometry": {"type": "Point", "coordinates": [76.62498049461165, -58.23075890213517]}}]}